NORAD_CAT_ID,OBJECT_NAME,OBJECT_TYPE,EPOCH,MEAN_MOTION,ECCENTRICITY,INCLINATION,RA_OF_ASC_NODE,ARG_OF_PERICENTER,MEAN_ANOMALY,BSTAR,MEAN_MOTION_DOT,MEAN_MOTION_DDOT,TLE_LINE0,TLE_LINE1,TLE_LINE2,SEMIMAJOR_AXIS,PERIOD,APOGEE,PERIGEE,DECAYED
55399.0,STARLINK-5276,PAYLOAD,2023-09-18 01:36:37,14.98336152,0.0002851,70.0016,182.7234,274.077,86.0063,5.3731e-05,5.48e-06,0.0,0 STARLINK-5276,1 55399U 23014J   23261.06710216  .00000548  00000-0  53731-4 0  9998,2 55399  70.0016 182.7234 0002851 274.0770  86.0063 14.98336152 35763,6950.174,96.107,574.02,570.057,0.0
55399.0,STARLINK-5276,PAYLOAD,2023-09-18 04:48:53,14.98337985,0.0002841,70.0018,182.387,273.5255,86.5579,7.2515e-05,7.73e-06,0.0,0 STARLINK-5276,1 55399U 23014J   23261.20062005  .00000773  00000-0  72515-4 0  9991,2 55399  70.0018 182.3870 0002841 273.5255  86.5579 14.98337985 36727,6950.168,96.106,574.008,570.059,0.0
55399.0,STARLINK-5276,PAYLOAD,2023-09-18 20:50:14,14.98325467,0.0002695,70.002,180.7042,269.8451,90.24,2.099e-06,-6.8e-07,0.0,0 STARLINK-5276,1 55399U 23014J   23261.86822819 -.00000068  00000-0  20990-5 0  9999,2 55399  70.0020 180.7042 0002695 269.8451  90.2400 14.98325467 36824,6950.207,96.107,573.945,570.199,0.0
55399.0,STARLINK-5276,PAYLOAD,2023-09-19 01:38:38,14.98331514,0.0002902,70.0012,180.2012,270.6959,89.3867,2.4855e-05,2.04e-06,0.0,0 STARLINK-5276,1 55399U 23014J   23262.06850411  .00000204  00000-0  24855-4 0  9995,2 55399  70.0012 180.2012 0002902 270.6959  89.3867 14.98331514 35916,6950.188,96.107,574.07,570.036,0.0
55399.0,STARLINK-5276,PAYLOAD,2023-09-19 04:50:54,14.98336806,0.0002716,70.0023,179.8641,269.2959,90.7889,0.0001018,1.122e-05,0.0,0 STARLINK-5276,1 55399U 23014J   23262.20201842  .00001122  00000-0  10180-3 0  9994,2 55399  70.0023 179.8641 0002716 269.2959  90.7889 14.98336806 35938,6950.172,96.107,573.925,570.149,0.0
55399.0,STARLINK-5276,PAYLOAD,2023-09-20 01:40:39,14.98330933,0.0002551,70.0025,177.6766,263.2776,96.8092,-1.318e-05,-2.5e-06,0.0,0 STARLINK-5276,1 55399U 23014J   23263.06990252 -.00000250  00000-0 -13180-4 0  9996,2 55399  70.0025 177.6766 0002551 263.2776  96.8092 14.98330933 36065,6950.19,96.107,573.828,570.282,0.0
55399.0,STARLINK-5276,PAYLOAD,2023-09-20 04:52:54,14.9836702,0.000248,70.002,177.3389,259.3568,100.7311,-0.00055958,-6.769e-05,0.0,0 STARLINK-5276,1 55399U 23014J   23263.20341165 -.00006769  00000-0 -55958-3 0  9994,2 55399  70.0020 177.3389 0002480 259.3568 100.7311 14.98367020 36082,6950.078,96.105,573.667,570.22,0.0
55399.0,STARLINK-5276,PAYLOAD,2023-09-20 19:18:09,14.98310935,0.0002581,70.0021,175.8233,263.3859,96.7007,-0.00014564,-1.829e-05,0.0,0 STARLINK-5276,1 55399U 23014J   23263.80428106 -.00001829  00000-0 -14564-3 0  9991,2 55399  70.0021 175.8233 0002581 263.3859  96.7007 14.98310935 36173,6950.252,96.108,573.911,570.323,0.0
55399.0,STARLINK-5276,PAYLOAD,2023-09-20 20:54:18,14.98309756,0.0002549,70.0022,175.6556,260.1148,99.9723,-0.00015452,-1.935e-05,0.0,0 STARLINK-5276,1 55399U 23014J   23263.87104269 -.00001935  00000-0 -15452-3 0  9994,2 55399  70.0022 175.6556 0002549 260.1148  99.9723 14.98309756 37125,6950.255,96.108,573.892,570.349,0.0
55399.0,STARLINK-5276,PAYLOAD,2023-09-21 03:18:50,14.98306719,0.0002548,70.0024,174.9826,259.271,100.8162,-0.00020039,-2.482e-05,0.0,0 STARLINK-5276,1 55399U 23014J   23264.13808941 -.00002482  00000-0 -20039-3 0  9997,2 55399  70.0024 174.9826 0002548 259.2710 100.8162 14.98306719 37161,6950.265,96.108,573.901,570.359,0.0
55399.0,STARLINK-5276,PAYLOAD,2023-09-21 20:56:19,14.98313839,0.0002403,70.0031,173.131,248.2359,111.8545,-1.8718e-05,-3.16e-06,0.0,0 STARLINK-5276,1 55399U 23014J   23264.87244628 -.00000316  00000-0 -18718-4 0  9990,2 55399  70.0031 173.1310 0002403 248.2359 111.8545 14.98313839 37275,6950.243,96.108,573.778,570.438,0.0
55399.0,STARLINK-5276,PAYLOAD,2023-09-22 01:44:40,14.98355025,0.000277,70.0016,172.6254,248.6892,111.3972,0.00036882,4.313e-05,0.0,0 STARLINK-5276,1 55399U 23014J   23265.07269264  .00004313  00000-0  36882-3 0  9996,2 55399  70.0016 172.6254 0002770 248.6892 111.3972 14.98355025 36363,6950.116,96.105,573.906,570.055,0.0
55399.0,STARLINK-5276,PAYLOAD,2023-09-22 04:56:59,14.98325754,0.0002615,70.0014,172.2878,258.5402,101.5464,4.1316e-05,4e-06,0.0,0 STARLINK-5276,1 55399U 23014J   23265.20623913  .00000400  00000-0  41316-4 0  9998,2 55399  70.0014 172.2878 0002615 258.5402 101.5464 14.98325754 36389,6950.206,96.107,573.889,570.254,0.0
55399.0,STARLINK-5276,PAYLOAD,2023-09-22 20:58:19,14.98327993,0.0002903,70.0023,170.6069,267.6323,92.4503,0.00032726,3.814e-05,0.0,0 STARLINK-5276,1 55399U 23014J   23265.87383119  .00003814  00000-0  32726-3 0  9998,2 55399  70.0023 170.6069 0002903 267.6323  92.4503 14.98327993 37421,6950.199,96.107,574.082,570.046,0.0
55399.0,STARLINK-5276,PAYLOAD,2023-09-23 01:46:42,14.98334161,0.0002542,70.0026,170.1018,252.8868,107.2013,0.00038003,4.445e-05,0.0,0 STARLINK-5276,1 55399U 23014J   23266.07410532  .00004445  00000-0  38003-3 0  9996,2 55399  70.0026 170.1018 0002542 252.8868 107.2013 14.98334161 36517,6950.18,96.107,573.812,570.278,0.0
55399.0,STARLINK-5276,PAYLOAD,2023-09-23 03:22:50,14.98337566,0.0002882,70.0017,169.933,269.3682,90.7147,0.00041865,4.907e-05,0.0,0 STARLINK-5276,1 55399U 23014J   23266.14086181  .00004907  00000-0  41865-3 0  9996,2 55399  70.0017 169.9330 0002882 269.3682  90.7147 14.98337566 37465,6950.169,96.107,574.038,570.031,0.0
55399.0,STARLINK-5276,PAYLOAD,2023-09-24 01:48:43,14.98336579,0.0003051,70.0015,167.5775,261.3889,98.6925,3.8016e-05,3.61e-06,0.0,0 STARLINK-5276,1 55399U 23014J   23267.07550778  .00000361  00000-0  38016-4 0  9992,2 55399  70.0015 167.5775 0003051 261.3889  98.6925 14.98336579 36665,6950.173,96.107,574.158,569.917,0.0
55399.0,STARLINK-5276,PAYLOAD,2023-09-24 03:24:51,14.98339258,0.0003153,70.0009,167.4077,264.1309,95.9491,6.3338e-05,6.63e-06,0.0,0 STARLINK-5276,1 55399U 23014J   23267.14226552  .00000663  00000-0  63338-4 0  9990,2 55399  70.0009 167.4077 0003153 264.1309  95.9491 14.98339258 37614,6950.164,96.106,574.221,569.838,0.0
55399.0,STARLINK-5276,PAYLOAD,2023-09-24 22:38:28,14.98338423,0.0002833,70.0018,165.3909,256.6493,103.4351,-0.00020262,-2.51e-05,0.0,0 STARLINK-5276,1 55399U 23014J   23267.94338929 -.00002510  00000-0 -20262-3 0  9993,2 55399  70.0018 165.3909 0002833 256.6493 103.4351 14.98338423 37735,6950.167,96.106,574.001,570.063,0.0
55399.0,STARLINK-5276,PAYLOAD,2023-09-25 01:50:44,14.98341624,0.0002888,70.002,165.0557,256.2968,103.787,-0.00018588,-2.311e-05,0.0,0 STARLINK-5276,1 55399U 23014J   23268.07690574 -.00002311  00000-0 -18588-3 0  9992,2 55399  70.0020 165.0557 0002888 256.2968 103.7870 14.98341624 36811,6950.157,96.106,574.029,570.015,0.0
55399.0,STARLINK-5276,PAYLOAD,2023-09-25 03:26:52,14.98341495,0.0002797,70.0018,164.8858,255.4096,104.6753,-0.0001636,-2.045e-05,0.0,0 STARLINK-5276,1 55399U 23014J   23268.14366492 -.00002045  00000-0 -16360-3 0  9999,2 55399  70.0018 164.8858 0002797 255.4096 104.6753 14.98341495 37762,6950.157,96.106,573.966,570.078,0.0
55399.0,STARLINK-5276,PAYLOAD,2023-09-25 21:04:20,14.98339247,0.0002798,70.0017,163.034,258.5922,101.4923,6.8694e-05,7.27e-06,0.0,0 STARLINK-5276,1 55399U 23014J   23268.87801497  .00000727  00000-0  68694-4 0  9999,2 55399  70.0017 163.0340 0002798 258.5922 101.4923 14.98339247 37879,6950.164,96.106,573.974,570.085,0.0
55399.0,STARLINK-5276,PAYLOAD,2023-09-26 01:52:44,14.98343249,0.0002717,70.0017,162.5291,256.6632,103.4224,0.00011412,1.269e-05,0.0,0 STARLINK-5276,1 55399U 23014J   23269.07828971  .00001269  00000-0  11412-3 0  9995,2 55399  70.0017 162.5291 0002717 256.6632 103.4224 14.98343249 36968,6950.152,96.106,573.905,570.129,0.0
55399.0,STARLINK-5276,PAYLOAD,2023-09-26 17:54:06,14.98323606,0.0002453,70.0039,160.8477,220.6523,139.4453,4.081e-05,3.94e-06,0.0,0 STARLINK-5276,1 55399U 23014J   23269.74590325  .00000394  00000-0  40810-4 0  9991,2 55399  70.0039 160.8477 0002453 220.6523 139.4453 14.98323606 37066,6950.213,96.107,573.783,570.373,0.0
55399.0,STARLINK-5276,PAYLOAD,2023-09-26 21:06:22,14.98322858,0.0002929,70.0022,160.5115,231.5748,128.5148,-5.0579e-05,-6.96e-06,0.0,0 STARLINK-5276,1 55399U 23014J   23269.87942640 -.00000696  00000-0 -50579-4 0  9996,2 55399  70.0022 160.5115 0002929 231.5748 128.5148 14.98322858 38027,6950.215,96.107,574.116,570.044,0.0
55399.0,STARLINK-5276,PAYLOAD,2023-09-27 01:54:47,14.98317898,0.0002952,70.0017,160.0053,240.1182,119.9685,-9.0713e-05,-1.175e-05,0.0,0 STARLINK-5276,1 55399U 23014J   23270.07971177 -.00001175  00000-0 -90713-4 0  9994,2 55399  70.0017 160.0053 0002952 240.1182 119.9685 14.98317898 37118,6950.23,96.108,574.147,570.044,0.0
55399.0,STARLINK-5276,PAYLOAD,2023-09-27 09:55:27,14.98323278,0.0003093,70.0007,159.1601,269.8686,90.2119,-0.00013783,-1.737e-05,0.0,0 STARLINK-5276,1 55399U 23014J   23270.41351172 -.00001737  00000-0 -13783-3 0  9994,2 55399  70.0007 159.1601 0003093 269.8686  90.2119 14.98323278 38101,6950.214,96.107,574.228,569.929,0.0
55399.0,STARLINK-5276,PAYLOAD,2023-09-28 01:56:48,14.98325686,0.0002995,70.0005,157.4771,265.9275,94.1542,-0.00010902,-1.393e-05,0.0,0 STARLINK-5276,1 55399U 23014J   23271.08111208 -.00001393  00000-0 -10902-3 0  9990,2 55399  70.0005 157.4771 0002995 265.9275  94.1542 14.98325686 37263,6950.206,96.107,574.153,569.99,0.0
55399.0,STARLINK-5276,PAYLOAD,2023-09-28 17:58:07,14.98326002,0.0003167,70.0002,155.7939,264.0355,96.0443,0.00021593,2.484e-05,0.0,0 STARLINK-5276,1 55399U 23014J   23271.74870310  .00002484  00000-0  21593-3 0  9997,2 55399  70.0002 155.7939 0003167 264.0355  96.0443 14.98326002 37363,6950.205,96.107,574.271,569.869,0.0
55399.0,STARLINK-5276,PAYLOAD,2023-09-28 21:10:24,14.98323464,0.0003184,70.0004,155.457,265.3412,94.7384,0.00027906,3.238e-05,0.0,0 STARLINK-5276,1 55399U 23014J   23271.88222315  .00003238  00000-0  27906-3 0  9990,2 55399  70.0004 155.4570 0003184 265.3412  94.7384 14.98323464 38325,6950.213,96.107,574.291,569.865,0.0
